IRIDIUM 159             
1 43578U 18061K   25297.59794551  .00000107  00000+0  31284-4 0  9992
2 43578  86.3992 155.1960 0002136  89.2072 270.9368 14.34217866379616
IRIDIUM 180             
1 43922U 19002A   25297.66720973  .00000055  00000+0  12533-4 0  9994
2 43922  86.3924  92.0606 0002203  91.5586 268.5862 14.34216525355236
IRIDIUM 176             
1 43923U 19002B   25297.71884904  .00000666  00000+0  10175-3 0  9993
2 43923  86.6047  92.0167 0002112  72.9625 287.1823 14.72259553364609
IRIDIUM 168             
1 43924U 19002C   25297.73063494  .00000197  00000+0  63217-4 0  9994
2 43924  86.3926  92.1050 0002107  90.2653 269.8784 14.34217908355220
IRIDIUM 173             
1 43925U 19002D   25297.71794866  .00000128  00000+0  38764-4 0  9990
2 43925  86.3922  92.0087 0002242  87.5102 272.6351 14.34216797355209
IRIDIUM 169             
1 43926U 19002E   25297.52773338  .00000173  00000+0  50089-4 0  9995
2 43926  86.4194 123.7368 0002626  59.3825 300.7632 14.38609788356342
IRIDIUM 172             
1 43927U 19002F   25297.50230315  .00000166  00000+0  52286-4 0  9990
2 43927  86.3922  92.1060 0002293  95.1500 264.9958 14.34217063355187
IRIDIUM 175             
1 43928U 19002G   25297.71404220  .00001734  00000+0  27108-3 0  9998
2 43928  86.1535  37.1783 0001301  98.2131 261.9233 14.72244679364593
